[{"OBJECT_NAME":"SAUDISAT 1C (SO-50)","OBJECT_ID":"2002-058C","EPOCH":"2026-03-04T03:42:18.989280","MEAN_MOTION":14.82756785,"ECCENTRICITY":0.0075133,"INCLINATION":64.5519,"RA_OF_ASC_NODE":93.8922,"ARG_OF_PERICENTER":281.7019,"MEAN_ANOMALY":77.5664,"EPHEMERIS_TYPE":0,"CLASSIFICATION_TYPE":"U","NORAD_CAT_ID":27607,"ELEMENT_SET_NO":999,"REV_AT_EPOCH":24888,"BSTAR":0.0003092,"MEAN_MOTION_DOT":2.476e-5,"MEAN_MOTION_DDOT":0},{"OBJECT_NAME":"SAUDISAT 2","OBJECT_ID":"2004-025F","EPOCH":"2026-03-03T14:07:17.406624","MEAN_MOTION":14.56610022,"ECCENTRICITY":0.0023518,"INCLINATION":98.5493,"RA_OF_ASC_NODE":59.8567,"ARG_OF_PERICENTER":260.7971,"MEAN_ANOMALY":99.0566,"EPHEMERIS_TYPE":0,"CLASSIFICATION_TYPE":"U","NORAD_CAT_ID":28371,"ELEMENT_SET_NO":999,"REV_AT_EPOCH":15037,"BSTAR":0.00011984,"MEAN_MOTION_DOT":4.86e-6,"MEAN_MOTION_DDOT":0},{"OBJECT_NAME":"SAUDISAT 3","OBJECT_ID":"2007-012B","EPOCH":"2026-03-03T20:28:08.373216","MEAN_MOTION":14.71347456,"ECCENTRICITY":0.0014142,"INCLINATION":98.1339,"RA_OF_ASC_NODE":13.2614,"ARG_OF_PERICENTER":197.6268,"MEAN_ANOMALY":162.4449,"EPHEMERIS_TYPE":0,"CLASSIFICATION_TYPE":"U","NORAD_CAT_ID":31118,"ELEMENT_SET_NO":999,"REV_AT_EPOCH":1225,"BSTAR":9.6265e-5,"MEAN_MOTION_DOT":5.45e-6,"MEAN_MOTION_DDOT":0},{"OBJECT_NAME":"PISAT","OBJECT_ID":"2016-059B","EPOCH":"2026-03-03T13:23:02.190336","MEAN_MOTION":14.68755523,"ECCENTRICITY":0.0029051,"INCLINATION":97.8188,"RA_OF_ASC_NODE":67.5655,"ARG_OF_PERICENTER":180.1556,"MEAN_ANOMALY":179.9646,"EPHEMERIS_TYPE":0,"CLASSIFICATION_TYPE":"U","NORAD_CAT_ID":41784,"ELEMENT_SET_NO":999,"REV_AT_EPOCH":50423,"BSTAR":0.00025467,"MEAN_MOTION_DOT":1.447e-5,"MEAN_MOTION_DDOT":0},{"OBJECT_NAME":"FLYING LAPTOP","OBJECT_ID":"2017-042G","EPOCH":"2026-03-04T04:13:58.779264","MEAN_MOTION":15.00470699,"ECCENTRICITY":0.0018555,"INCLINATION":97.425,"RA_OF_ASC_NODE":223.0967,"ARG_OF_PERICENTER":113.2625,"MEAN_ANOMALY":247.0555,"EPHEMERIS_TYPE":0,"CLASSIFICATION_TYPE":"U","NORAD_CAT_ID":42831,"ELEMENT_SET_NO":999,"REV_AT_EPOCH":47070,"BSTAR":0.00034263,"MEAN_MOTION_DOT":4.272e-5,"MEAN_MOTION_DDOT":0},{"OBJECT_NAME":"SALSAT","OBJECT_ID":"2020-068K","EPOCH":"2026-03-03T18:42:46.219968","MEAN_MOTION":15.28039347,"ECCENTRICITY":0.00087313,"INCLINATION":97.8847,"RA_OF_ASC_NODE":59.5668,"ARG_OF_PERICENTER":321.6728,"MEAN_ANOMALY":38.3888,"EPHEMERIS_TYPE":0,"CLASSIFICATION_TYPE":"U","NORAD_CAT_ID":46495,"ELEMENT_SET_NO":999,"REV_AT_EPOCH":29925,"BSTAR":0.00046597086,"MEAN_MOTION_DOT":0.00012684,"MEAN_MOTION_DDOT":0}]
